[{"OBJECT_NAME":"STARLINK-4649","OBJECT_ID":"2022-114P","EPOCH":"2026-03-09T23:14:08.042496","MEAN_MOTION":15.0883751,"ECCENTRICITY":0.00013192,"INCLINATION":53.2183,"RA_OF_ASC_NODE":302.8571,"ARG_OF_PERICENTER":79.5962,"MEAN_ANOMALY":280.5179,"EPHEMERIS_TYPE":0,"CLASSIFICATION_TYPE":"U","NORAD_CAT_ID":53831,"ELEMENT_SET_NO":999,"REV_AT_EPOCH":19287,"BSTAR":1.0768866e-5,"MEAN_MOTION_DOT":-1.17e-6,"MEAN_MOTION_DDOT":0},{"OBJECT_NAME":"CZ-6A R\/B","OBJECT_ID":"2024-126D","EPOCH":"2026-03-09T19:23:06.789408","MEAN_MOTION":15.13279149,"ECCENTRICITY":0.00704729,"INCLINATION":97.7886,"RA_OF_ASC_NODE":97.6113,"ARG_OF_PERICENTER":100.2752,"MEAN_ANOMALY":260.6434,"EPHEMERIS_TYPE":0,"CLASSIFICATION_TYPE":"U","NORAD_CAT_ID":60214,"ELEMENT_SET_NO":999,"REV_AT_EPOCH":9240,"BSTAR":0.00030839807,"MEAN_MOTION_DOT":5.76e-5,"MEAN_MOTION_DDOT":0}]
